KUIPER-00008            
1 63724U 25088A   25239.07525778  .00003604  00000+0  31660-3 0  9998
2 63724  51.8892 254.2693 0010953 160.9783 199.1598 14.98858487 18867
KUIPER-00009            
1 63725U 25088B   25239.25002315 -.00046041  00000+0 -54983-2 0  9992
2 63725  51.8979 246.4688 0012395 173.4715 267.9519 14.83853028  4285
KUIPER-00010            
1 63726U 25088C   25238.71166520  .00015836  00000+0  44392-3 0  9992
2 63726  51.8619 240.3622 0008542 173.8208 186.2885 15.36729125 18641
KUIPER-00011            
1 63727U 25088D   25239.25002315 -.00582057  00000+0 -22305-1 0  9998
2 63727  51.8615 238.3875 0008614 182.5813 274.7857 15.28114315  5507
KUIPER-00012            
1 63728U 25088E   25238.74339140  .00017513  00000+0  49356-3 0  9996
2 63728  51.8540 240.4728 0009593 185.0130 175.0762 15.36474634 18732
KUIPER-00013            
1 63729U 25088F   25239.25002315 -.00022564  00000+0 -29389-2 0  9992
2 63729  51.9001 247.8521 0008434 116.7898  11.2845 14.79926860  5168
KUIPER-00014            
1 63730U 25088G   25239.25002315 -.00028629  00000+0 -37459-2 0  9999
2 63730  51.9001 248.8421 0008397 166.3513 316.4731 14.79863111  5144
KUIPER-00015            
1 63731U 25088H   25239.04692844  .00000379  00000+0  77049-4 0  9990
2 63731  51.8989 261.9768 0010698 153.5937 206.5573 14.81199324 18838
